STARLINK-1126
1 24951C 20001AP  21325.08645449  .00007340  00000-0  46432-3 0  3258
2 24951  53.0011 169.0536 0001531  75.4282 139.8758 15.08505254    10
